HIERARCHY
ROOT Hips
{
    OFFSET 0.0 0.0 0.0
    CHANNELS 6 Xposition Yposition Zposition Zrotation Xrotation Yrotation
    JOINT LeftUpLeg
    {
        OFFSET -5.0 0.0 0.0
        CHANNELS 3 Zrotation Xrotation Yrotation
        JOINT LeftLeg
        {
            OFFSET 0.0 -10.0 0.0
            CHANNELS 3 Zrotation Xrotation Yrotation
            End Site
            {
                OFFSET 0.0 -10.0 0.0
            }
        }
    }
    JOINT RightUpLeg
    {
        OFFSET 5.0 0.0 0.0
        CHANNELS 3 Zrotation Xrotation Yrotation
        JOINT RightLeg
        {
            OFFSET 0.0 -10.0 0.0
            CHANNELS 3 Zrotation Xrotation Yrotation
            End Site
            {
                OFFSET 0.0 -10.0 0.0
            }
        }
    }
}
MOTION
Frames: 8
Frame Time: 0.0333333
0.0 20.0 0.0 0.0 0.0 0.0   0.0 0.0 0.0   0.0 0.0 0.0   0.0 0.0 0.0   0.0 0.0 0.0
0.2 20.0 0.0 0.0 0.0 0.0   10.0 0.0 0.0   -15.0 0.0 0.0   -10.0 0.0 0.0   15.0 0.0 0.0
0.4 20.0 0.0 0.0 0.0 0.0   18.0 0.0 0.0   -28.0 0.0 0.0   -18.0 0.0 0.0   28.0 0.0 0.0
0.6 20.0 0.0 0.0 0.0 0.0   10.0 0.0 0.0   -15.0 0.0 0.0   -10.0 0.0 0.0   15.0 0.0 0.0
0.8 20.0 0.0 0.0 0.0 0.0   0.0 0.0 0.0   0.0 0.0 0.0   0.0 0.0 0.0   0.0 0.0 0.0
1.0 20.0 0.0 0.0 0.0 0.0   -10.0 0.0 0.0   15.0 0.0 0.0   10.0 0.0 0.0   -15.0 0.0 0.0
1.2 20.0 0.0 0.0 0.0 0.0   -18.0 0.0 0.0   28.0 0.0 0.0   18.0 0.0 0.0   -28.0 0.0 0.0
1.4 20.0 0.0 0.0 0.0 0.0   -10.0 0.0 0.0   15.0 0.0 0.0   10.0 0.0 0.0   -15.0 0.0 0.0
