HIERARCHY
ROOT Hips
{
	OFFSET 0.000000 0.000000 0.000000
	CHANNELS 6 Xposition Yposition Zposition Zrotation Xrotation Yrotation
	JOINT LeftUpLeg
	{
		OFFSET -5.000000 0.000000 0.000000
		CHANNELS 6 Xposition Yposition Zposition Zrotation Xrotation Yrotation
		JOINT LeftLeg
		{
			OFFSET 0.000000 0.000000 -10.000000
			CHANNELS 6 Xposition Yposition Zposition Zrotation Xrotation Yrotation
			End Site
			{
				OFFSET 0.000000 0.000000 -10.000000
			}
		}
	}
	JOINT RightUpLeg
	{
		OFFSET 5.000000 0.000000 0.000000
		CHANNELS 6 Xposition Yposition Zposition Zrotation Xrotation Yrotation
		JOINT RightLeg
		{
			OFFSET 0.000000 0.000000 -10.000000
			CHANNELS 6 Xposition Yposition Zposition Zrotation Xrotation Yrotation
			End Site
			{
				OFFSET 0.000000 0.000000 -10.000000
			}
		}
	}
}
MOTION
Frames: 16
Frame Time: 0.041667
0.000000 -0.000001 20.000000 -0.000000 0.000000 -0.000000 -5.000000 0.000000 0.000000 -0.000000 0.000000 -0.000000 0.000000 0.000000 -10.000000 -0.000000 0.000000 -0.000000 5.000000 0.000000 0.000000 -0.000000 0.000000 -0.000000 0.000000 0.000000 -10.000000 -0.000000 0.000000 -0.000000 
0.000000 -0.000001 20.000000 -0.000000 0.000000 -0.000000 -5.000000 0.000000 0.000000 -0.000000 0.000000 -0.000000 0.000000 0.000000 -10.000000 -0.000000 0.000000 -0.000000 5.000000 0.000000 0.000000 -0.000000 0.000000 -0.000000 0.000000 0.000000 -10.000000 -0.000000 0.000000 -0.000000 
0.100000 -0.000001 20.000000 -0.000000 0.000000 -0.000000 -5.000000 0.000000 0.000000 -0.000001 0.000000 -5.000000 0.000000 0.000000 -10.000001 0.000001 0.000000 7.500000 5.000000 0.000000 0.000000 0.000001 0.000000 5.000000 -0.000000 0.000000 -10.000001 -0.000001 0.000000 -7.500000 
0.200000 -0.000001 20.000000 -0.000000 0.000000 -0.000000 -5.000000 0.000000 0.000000 -0.000001 0.000000 -10.000000 0.000000 0.000000 -10.000002 0.000002 0.000000 15.000000 5.000000 0.000000 0.000000 0.000001 0.000000 10.000000 0.000000 0.000000 -10.000003 -0.000002 0.000000 -15.000000 
0.300000 -0.000001 20.000000 -0.000000 0.000000 -0.000000 -5.000000 0.000000 0.000000 -0.000002 0.000000 -14.000000 -0.000000 0.000000 -10.000000 0.000003 0.000000 21.500003 5.000000 0.000000 0.000000 0.000002 0.000000 14.000000 0.000000 0.000000 -10.000000 -0.000003 0.000000 -21.500003 
0.400000 -0.000001 20.000000 -0.000000 0.000000 -0.000000 -5.000000 0.000000 0.000000 -0.000002 0.000000 -18.000001 -0.000000 0.000000 -10.000002 0.000003 0.000001 28.000002 5.000000 0.000000 0.000000 0.000002 0.000000 18.000001 -0.000000 0.000000 -10.000002 -0.000003 0.000001 -28.000002 
0.500000 -0.000001 20.000000 -0.000000 0.000000 -0.000000 -5.000000 0.000000 0.000000 -0.000002 0.000000 -14.000000 -0.000000 0.000000 -9.999999 0.000003 0.000000 21.500003 5.000000 0.000000 0.000000 0.000002 0.000000 14.000000 0.000000 0.000000 -10.000000 -0.000003 0.000000 -21.500003 
0.600000 -0.000001 20.000000 -0.000000 0.000000 -0.000000 -5.000000 0.000000 0.000000 -0.000001 0.000000 -10.000000 -0.000000 0.000000 -10.000002 0.000002 0.000000 15.000000 5.000000 0.000000 0.000000 0.000001 0.000000 10.000000 0.000000 0.000000 -10.000002 -0.000002 0.000000 -15.000000 
0.700000 -0.000001 20.000000 -0.000000 0.000000 -0.000000 -5.000000 0.000000 0.000000 -0.000001 0.000000 -5.000000 0.000000 0.000000 -10.000001 0.000001 0.000000 7.500000 5.000000 0.000000 0.000000 0.000001 0.000000 5.000000 -0.000000 0.000000 -10.000001 -0.000001 0.000000 -7.500000 
0.800000 -0.000001 20.000000 -0.000000 0.000000 -0.000000 -5.000000 0.000000 0.000000 -0.000000 0.000000 -0.000000 0.000000 0.000000 -10.000000 -0.000000 0.000000 -0.000000 5.000000 0.000000 0.000000 -0.000000 0.000000 -0.000000 0.000000 0.000000 -10.000000 -0.000000 0.000000 -0.000000 
0.900000 -0.000001 20.000000 -0.000000 0.000000 -0.000000 -5.000000 0.000000 0.000000 0.000001 0.000000 5.000000 -0.000001 0.000000 -10.000002 -0.000001 0.000000 -7.500000 5.000000 0.000000 0.000000 -0.000001 0.000000 -5.000000 0.000000 0.000000 -10.000001 0.000001 0.000000 7.500000 
1.000000 -0.000001 20.000000 -0.000000 0.000000 -0.000000 -5.000000 0.000000 0.000000 0.000001 0.000000 10.000000 -0.000000 0.000000 -10.000002 -0.000002 0.000000 -15.000000 5.000000 0.000000 0.000000 -0.000001 0.000000 -10.000000 -0.000000 0.000000 -10.000002 0.000002 0.000000 15.000000 
1.100000 -0.000001 20.000000 -0.000000 0.000000 -0.000000 -5.000000 0.000000 0.000000 0.000002 0.000000 14.000000 -0.000000 0.000000 -10.000000 -0.000003 0.000000 -21.500003 5.000000 0.000000 0.000000 -0.000002 0.000000 -14.000000 -0.000001 0.000000 -10.000000 0.000003 0.000000 21.500003 
1.200000 -0.000001 20.000000 -0.000000 0.000000 -0.000000 -5.000000 0.000000 0.000000 0.000002 0.000000 18.000001 -0.000000 0.000000 -10.000002 -0.000003 0.000001 -28.000002 5.000000 0.000000 0.000000 -0.000002 0.000000 -18.000001 0.000000 0.000000 -10.000002 0.000003 0.000001 28.000002 
1.300000 -0.000001 20.000000 -0.000000 0.000000 -0.000000 -5.000000 0.000000 0.000000 0.000002 0.000000 14.000000 0.000000 0.000000 -10.000000 -0.000003 0.000000 -21.500003 5.000000 0.000000 0.000000 -0.000002 0.000000 -14.000000 -0.000000 0.000000 -9.999999 0.000003 0.000000 21.500003 
1.400000 -0.000001 20.000000 -0.000000 0.000000 -0.000000 -5.000000 0.000000 0.000000 0.000001 0.000000 10.000000 0.000000 0.000000 -10.000002 -0.000002 0.000000 -15.000000 5.000000 0.000000 0.000000 -0.000001 0.000000 -10.000000 -0.000000 0.000000 -10.000002 0.000002 0.000000 15.000000 
